name,about,address,city,state,zip
FAME Public Charter,"39899 Balentine Drive, Suite 335","39899 Balentine Dr., Ste. 335 ",NeAwark,CA,94560-5359
Envision Academy for Arts & Technology,1515 Webster Street,1515 Webster St. ,Oakland,CA,94612-3355
Aspire California College Preparatory Academy,2125 Jefferson Avenue,2125 Jefferson Ave.,Berkeley,CA,94703-1414
Community School for Creative Education,2111 International Boulevard,2111 International Blvd.,Oakland,CA,94606-4903
Yu Ming Charter,1086 Alcatraz Avenue,1086 Alcatraz Ave.,Oakland,CA,94608-1265
Urban Montessori Charter,5328 Brann Street,5328 Brann St.,Oakland,CA,94619-3312
"Technical, Agricultural & Nat.",597 C Street,597 C St.,Hayward,CA,94541
Alameda County Juvenile Hall/Court,2500 Fairmont Avenue,2500 Fairmont Ave.,San Leandro,CA,94578-1005
Alameda County Community,313 West Winton Avenue,313 West Winton Ave.,Hayward,CA,94544-1136
Alameda County Opportunity,313 West Winton Avenue,313 West Winton Ave.,Hayward,CA,94544-1136
Oakland Unity Middle,7200 Bancroft Avenue # 261,7200 Bancroft Ave. # 261,Oakland,CA,94605-2403
Connecting Waters Charter - East Bay,12420 Bentley Street,12420 Bentley St.,Waterford,CA,95386-9150
Cox Academy,9860 Sunnyside Street,9860 Sunnyside St.,Oakland,CA,94603-2750
Lazear Charter Academy,824 29th Avenue,824 29th Ave.,Oakland,CA,94601-2205
Chabot Ranch,2500 Fairmont Drive,2500 Fairmont Dr.,San Leandro,CA,94578
Juvenile Court Schools,2400 Fairmont Drive,2400 Fairmont Dr.,San Leandro,CA,94578
Las Vistas School,2200 Fairmont Drive,2200 Fairmont Dr.,San Leandro,CA,94578
Senior Camp,2600 Fairmont Drive,2600 Fairmont Dr.,San Leandro,CA,94578
Snedigar Cottage,2100 Fairmont Drive,2100 Fairmont Dr.,San Leandro,CA,94578
Koster/Whiteford Special Center,35725 Cedar Avenue,35725 Cedar Ave.,Newark,CA,94560
Whiteford School (TMR),685 A Street,685 A St.,Hayward,CA,94541
Alameda County Special Education,685 A Street,685 A St.,Hayward,CA,94541
Buena Vista School (Girls),2200 Fairmont Drive,2200 Fairmont Dr.,San Leandro,CA,94578
Whiteford (June) School,35725 Cedar Boulevard,35725 Cedar Blvd.,Newark,CA,94560
School for School-Age Mothers,8151 Village Parkway,8151 Village Pkwy.,Dublin,CA,94568
Sequoia Deaf/Blind Program,685 A Street,685 A St.,Hayward,CA,94541
Burke (William P.) Special Center,612 West A Street,612 West A St.,Hayward,CA,94541
East County Dch,7997 Vomac Road,7997 Vomac Rd.,Dublin,CA,94566
La Fleche (Rock) Special Center,6925 Chabot Road,6925 Chabot Rd.,Oakland,CA,94618
Motta (Ronald) Special Center,40950 Chapel Way,40950 Chapel Way,Fremont,CA,94538
Alameda County Special Education,313 West Winton Avenue,313 West Winton Ave.,Hayward,CA,94544-1136
California School for the Blind,500 Walnut Avenue,500 Walnut Ave.,Fremont,CA,94536-4365
California School for the Deaf-Fremont,39350 Gallaudet Drive,39350 Gallaudet Dr.,Fremont,CA,94538-2308
"David W. Gordon,Govt. Affairs",PO Box 944272,PO Box 944272,Sacramento,CA,94244
College Preparatory & Architecture Academy,4610 Foothill Boulevard,4610 Foothill Blvd.,Oakland,CA,94601
Alameda Science and Technology Institute,555 Atlantic Avenue,555 Atlantic Ave.,Alameda,CA,94501-2109
Ruby Bridges Elementary,351 Jack London Avenue,351 Jack London Ave.,Alameda,CA,94501-3901
Nea Community Learning Center,1900 Third Street,1900 Third St.,Alameda,CA,94501-1851
The Academy of Alameda,401 Pacific Avenue,401 Pacific Ave.,Alameda,CA,94501-1837
Maya Lin,825 Taylor Street,825 Taylor St.,Alameda,CA,94501-3411
Encinal Junior Jets,210 Central Avenue,210 Central Ave.,Alameda,CA,94501-3246
Alameda Adult,1300 Third Street,1300 Third St.,Alameda,CA,94501
Alameda High,2201 Encinal Avenue,2201 Encinal Ave.,Alameda,CA,94501-4406
Alameda City Unified Alternative Educ.,2437 Eagle Avenue,2437 Eagle Ave.,Alameda,CA,94501
Alameda Community Learning Center,1900 Third Street,1900 Third St.,Alameda,CA,94501-1851
Alternatives in Action,6221 East 17th Street,6221 East 17th St.,Oakland,CA,94621-4107
The Academy of Alameda Elementary,401 Pacific Avenue,401 Pacific Ave.,Alameda,CA,94501-1837
Encinal Junior/Senior High,210 Central Avenue,210 Central Ave.,Alameda,CA,94501-3246
Encinal High,210 Central Avenue,210 Central Ave.,Alameda,CA,94501-3278
Island High (Continuation),500 Pacific Avenue,500 Pacific Ave.,Alameda,CA,94501-2125
Chipman Middle,401 Pacific Avenue,401 Pacific Ave.,Alameda,CA,94501-1837
Donald D. Lum Elementary,1801 Sandcreek Way,1801 Sandcreek Way,Alameda,CA,94501-6024
Edison Elementary,2700 Buena Vista Avenue,2700 Buena Vista Ave.,Alameda,CA,94501-1610
Frank Otis Elementary,3010 Fillmore Street,3010 Fillmore St.,Alameda,CA,94501-5544
Franklin Elementary,1433 San Antonio Avenue,1433 San Antonio Ave.,Alameda,CA,94501-4039
Henry Haight Elementary,2025 Santa Clara Avenue,2025 Santa Clara Ave.,Alameda,CA,94501-2720
Lincoln Middle,1250 Fernside Boulevard,1250 Fernside Blvd.,Alameda,CA,94501-4808
Longfellow Elementary,500 Pacific Avenue,500 Pacific Ave.,Alameda,CA,94501-2125
Mastick Elementary,1525 Bay Street,1525 Bay St.,Alameda,CA,94501
George P. Miller Elementary,250 Singleton Avenue,250 Singleton Ave.,Alameda,CA,94501-7238
Porter Elementary,2248 Alameda Avenue,2248 Alameda Ave.,Alameda,CA,94501
Washington Elementary,825 Taylor Avenue,825 Taylor Ave.,Alameda,CA,94501-3411
Will C. Wood Middle,420 Grand Street,420 Grand St.,Alameda,CA,94501-5941
William G. Paden Elementary,444 Central Avenue,444 Central Ave.,Alameda,CA,94501-3615
Woodstock Elementary,1900 Third Street,1900 Third St.,Alameda,CA,94501-1898
Amelia Earhart Elementary,400 Packet Landing Road,400 Packet Landing Rd.,Alameda,CA,94502-6534
Grand Alternative,400 Grant Street,400 Grant St.,Alameda,CA,94501
Bay Farm,200 Aughinbaugh Way,200 Aughinbaugh Way,Alameda,CA,94502-7451
Albany Children's Center,720 Jackson Street,720 Jackson St.,Albany,CA,94706
Albany Adult,603 Key Route Boulevard,603 Key Route Blvd.,Albany,CA,94706-1422
MacGregor High (Continuation),603 Key Route Blvd,603 Key Route Blvd,Albany,CA,94706-1422
Albany Adult,603 Key Route Boulevard,603 Key Route Blvd.,Albany,CA,94706
Albany High,603 Key Route Boulevard,603 Key Route Blvd.,Albany,CA,94706-1422
Albany Primary,607 Key Route Boulevard,607 Key Route Blvd.,Albany,CA,94706
Cornell Elementary,920 Talbot Avenue,920 Talbot Ave.,Albany,CA,94706-2020
MacGregor Primary,601 San Gabriel Avenue,601 San Gabriel Ave.,Albany,CA,94706
Albany Middle,1259 Brighton Avenue,1259 Brighton Ave.,Albany,CA,94706-1336
Marin Elementary,1001 Santa Fe Avenue,1001 Santa Fe Ave.,Albany,CA,94706-2341
Ocean View Elementary,1000 Jackson Street,1000 Jackson St.,Albany,CA,94706-1904
Amador Valley Adult Education,8151 Village Parkway,8151 Village Pkwy.,Dublin,CA,94566
Foothill High,4375 Foothill Road,4375 Foothill Rd.,Pleasanton,CA,94566-9799
Village High,4750 First Street,4750 First St.,Pleasanton,CA,94566-8399
Pleasanton Unified Alternative,Ten Neal Street,Ten Neal St.,Pleasanton,CA,94566
Amador Valley High,1155 Santa Rita Road,1155 Santa Rita Rd.,Pleasanton,CA,94566-6176
Dublin High,8151 Village Parkway,8151 Village Pkwy.,Dublin,CA,94568
Valley High,7001 Brighton Drive,7001 Brighton Dr.,Dublin,CA,94568-3075
REALM Charter Middle,2023 Eighth Street,2023 Eighth St.,Berkeley,CA,94710-2026
Berkeley Special Education Preschool,2134 Martin Luther King Junior Way,2134 Martin Luther King Jr. Way,Berkeley,CA,94704-1180
Berkeley Adult,1701 San Pablo Avenue,1701 San Pablo Ave.,Berkeley,CA,94702-1709
Berkeley High,1980 Allston Way,1980 Allston Way,Berkeley,CA,94704-1463
"West Campus, Berkeley High",1222 University Avenue,1222 University Ave.,Berkeley,CA,94702
Berkeley Technology Academy,2701 Martin Luther King Junior Way,2701 Martin Luther King Jr. Way,Berkeley,CA,94704-2165
Martin Luther King Middle,1781 Rose Street,1781 Rose St.,Berkeley,CA,94703-1048
Willard Middle,2425 Stuart Street,2425 Stuart St.,Berkeley,CA,94705-1209
King Educational Center,1810 Hopkins Street,1810 Hopkins St.,Berkeley,CA,94707
Home Teaching,1809 Fairview,1809 Fairview,Berkeley,CA,94703
Pregnant Minors Program,Bungalow B,Bungalow B,Berkeley,CA,94704
Rosa Parks Environmental Science Magnet,920 Allston Way,920 Allston Way,Berkeley,CA,94710-2389
Cragmont Elementary,830 Regal Road,830 Regal Rd.,Berkeley,CA,94708-1308
Tilden Primary,499 Spruce Street,499 Spruce St.,Berkeley,CA,94707
Emerson Elementary,2800 Forest Avenue,2800 Forest Ave.,Berkeley,CA,94705-1309
Franklin Elementary,1150 Virginia Street,1150 Virginia St.,Berkeley,CA,94702-1323
Hillside Primary,1581 Leroy Avenue,1581 Leroy Ave.,Berkeley,CA,94708
Grizzly Peak Primary,40 Whitaker Avenue,40 Whitaker Ave.,Berkeley,CA,94708
Jefferson Elementary,1400 Ada Street,1400 Ada St.,Berkeley,CA,94702-1217
Muir Model School,2955 Claremont Avenue,2955 Claremont Ave.,Berkeley,CA,94705
Leconte Elementary,2241 Russell Street,2241 Russell St.,Berkeley,CA,94705-1029
Malcolm X Elementary,1731 Prince Street,1731 Prince St.,Berkeley,CA,94703-2464
Longfellow Arts and Technology Middle,1500 Derby Street,1500 Derby St.,Berkeley,CA,94703-1817
Oxford Elementary,1130 Oxford Street,1130 Oxford St.,Berkeley,CA,94707-2624
Thousand Oaks Elementary,840 Colusa Avenue,840 Colusa Ave.,Berkeley,CA,94707-1858
Washington Elementary,2300 Martin Luther King Junior Way,2300 Martin Luther King Jr. Way,Berkeley,CA,94704-1412
Whittier Primary,1645 Milvia Street,1645 Milvia St.,Berkeley,CA,94709
Kilimanjaro,830 Regal Road,830 Regal Rd.,Berkeley,CA,94708
Berkeley Arts Magnet at Whittier,1645 Milvia Street,1645 Milvia St.,Berkeley,CA,94709-2073
Berkeley Alternative Jr. High,2425 Stuart Street,2425 Stuart St.,Berkeley,CA,94705
John Muir Elementary,2955 Claremont Avenue,2955 Claremont Ave.,Berkeley,CA,94705-2449
Franklin Parent Nursery,1460 Eighth Street,1460 Eighth St.,Berkeley,CA,94703
Longfellow Parent Nursery,1522 Ward Street,1522 Ward St.,Berkeley,CA,94705
UC Child Study Parent Nursery,2425 Atherton,2425 Atherton,Berkeley,CA,94705
Redwood Alternative High,18400 Clifton Way,18400 Clifton Way,Castro Valley,CA,94546
Alma Preschool,4400 Alma Avenue,4400 Alma Ave.,Castro Valley,CA,94546-3104
Roy A. Johnson High,18400 Clifton Way,18400 Clifton Way,Castro Valley,CA,94546-0146
Redwood Adult Center,4400 Alma Avenue,4400 Alma Ave.,Castro Valley,CA,94546
Castro Valley Evening High Sch,19400 Santa Maria Avenue,19400 Santa Maria Ave.,Castro Valley,CA,94546
Castro Valley High,19400 Santa Maria Avenue,19400 Santa Maria Ave.,Castro Valley,CA,94546-3400
Castro Valley Virtual Academy,18400 Clifton Way,18400 Clifton Way,Castro Valley,CA,94546-2020
Redwood Continuation High,18400 Clifton Way,18400 Clifton Way,Castro Valley,CA,94546-0146
A. B. Morris Intermediate,3310 Barlow Drive,3310 Barlow Dr.,Castro Valley,CA,94546
Castro Valley Elementary,20185 San Miguel Avenue,20185 San Miguel Ave.,Castro Valley,CA,94546-0146
Chabot Elementary,19104 Lake Chabot Road,19104 Lake Chabot Rd.,Castro Valley,CA,94546-2936
Clifton Elementary,18400 Clifton Way,18400 Clifton Way,Castro Valley,CA,94546
Creekside Middle,19722 Center Street,19722 Center St.,Castro Valley,CA,94546-4704
Independent Elementary,21201 Independent School Road,21201 Independent School Rd.,Castro Valley,CA,94552-4826
Marshall Elementary,20111 Marshall Street,20111 Marshall St.,Castro Valley,CA,94546-4656
Palomares Elementary,6395 Palo Verde Road,6395 Palo Verde Rd.,Castro Valley,CA,94552-9708
Parsons Elementary,17570 Almond Road,17570 Almond Rd.,Castro Valley,CA,94546
Proctor Elementary,17520 Redwood Road,17520 Redwood Rd.,Castro Valley,CA,94546-1434
Redwood Elementary,19722 Center Street,19722 Center St.,Castro Valley,CA,94546
Redwood Primary,4208 James Avenue,4208 James Ave.,Castro Valley,CA,94546
Stanton Elementary,2644 Somerset Avenue,2644 Somerset Ave.,Castro Valley,CA,94546-4016
Sydney Elementary,2755 Sydney Way,2755 Sydney Way,Castro Valley,CA,94546
Vannoy Elementary,5100 Vannoy,5100 Vannoy,Castro Valley,CA,94546-0146
Canyon Middle,19600 Cull Canyon Road,19600 Cull Canyon Rd.,Castro Valley,CA,94552-3715
Jensen Ranch Elementary,20001 Carson Lane,20001 Carson Ln.,Castro Valley,CA,94552-1001
Emeryville Preschool Students,1275 - 61st Street,1275 - 61st St.,Emeryville,CA,94608-2132
Emery Secondary,1100 47th Street,1100 47th St.,Emeryville,CA,94608-2908
Emery Adult,4727 San Pablo Avenue,4727 San Pablo Ave.,Emeryville,CA,94608-3035
Anna Yates Elementary,1125 53rd Street,1125 53rd St.,Emeryville,CA,94608-3643
Emery Middle,1275 - 61st Street,1275 - 61st St.,Emeryville,CA,94608
Young Adult Program,4700 Calaveras Avenue,4700 Calaveras Ave.,Fremont,CA,94538-1124
Glankler Early Learning Center,39207 Sundale Drive,39207 Sundale Dr.,Fremont,CA,94538-1916
American High,36300 Fremont Boulevard,36300 Fremont Blvd.,Fremont,CA,94536-3511
Robertson High (Continuation),4455 Seneca Park Avenue,4455 Seneca Park Ave.,Fremont,CA,94538-4028
Circle of Independent Learning,4700 Calaveras Avenue,4700 Calaveras Ave.,Fremont,CA,94538-1124
Fremont Adult,4700 Calaveras Avenue,4700 Calaveras Ave.,Fremont,CA,94538-1124
Irvington High,41800 Blacow Road,41800 Blacow Rd.,Fremont,CA,94538-3353
John F. Kennedy High,39999 Blacow Road,39999 Blacow Rd.,Fremont,CA,94538-1913
Mission San Jose High,41717 Palm Avenue,41717 Palm Ave.,Fremont,CA,94539-4799
Washington High,38442 Fremont Boulevard,38442 Fremont Blvd.,Fremont,CA,94536-6031
Williamson High,3400 Eggers Drive,3400 Eggers Dr.,Fremont,CA,94536
Alviso Elementary,3375 Warwick Road,3375 Warwick Rd.,Fremont,CA,94536
John Blacow Elementary,40404 Sundale Drive,40404 Sundale Dr.,Fremont,CA,94538-3314
Brier Elementary,39201 Sundale Drive,39201 Sundale Dr.,Fremont,CA,94538-1916
Cabrillo Elementary,36700 San Pedro Drive,36700 San Pedro Dr.,Fremont,CA,94536-6406
Noll (Conrad) Elementary,39600 Sundale Drive,39600 Sundale Dr.,Fremont,CA,94538
David Reynolds Elementary,42875 Gatewood Street,42875 Gatewood St.,Fremont,CA,94538
E. M. Grimmer Elementary,43030 Newport Drive,43030 Newport Dr.,Fremont,CA,94538-6113
Marshall (Earl) Elementary,5301 Curtis Street,5301 Curtis St.,Fremont,CA,94539
Glenmoor Elementary,4620 Mattos Drive,4620 Mattos Dr.,Fremont,CA,94536-6784
Hacienda Elementary,35699 Niles Boulevard,35699 Niles Blvd.,Fremont,CA,94536
Harvey Green Elementary,42875 Gatewood Street,42875 Gatewood St.,Fremont,CA,94538-4131
J. Haley Durham Elementary,40292 Leslie Street,40292 Leslie St.,Fremont,CA,94538-3520
James Leitch Elementary,47100 Fernald Street,47100 Fernald St.,Fremont,CA,94539-7005
Joseph Azevada Elementary,39450 Royal Palm Drive,39450 Royal Palm Dr.,Fremont,CA,94538-1843
Linda Vista Elementary,2650 Bruce Drive,2650 Bruce Dr.,Fremont,CA,94538
Tom Maloney Elementary,38700 Logan Drive,38700 Logan Dr.,Fremont,CA,94536-6899
John G. Mattos Elementary,37944 Farwell Drive,37944 Farwell Dr.,Fremont,CA,94536-7008
Warm Springs Elementary,47370 Warm Springs Boulevard,47370 Warm Springs Blvd.,Fremont,CA,94539-7458
Centerville Junior High,37720 Fremont Boulevard,37720 Fremont Blvd.,Fremont,CA,94536-5096
G. M. Walters Junior High,39600 Logan Drive,39600 Logan Dr.,Fremont,CA,94538-1912
Robertson (Gus C.) Junior High,4455 Seneca Park Avenue,4455 Seneca Park Ave.,Fremont,CA,94538
John M. Horner Junior High,41365 Chapel Way,41365 Chapel Way,Fremont,CA,94538-4202
Thornton Junior High,4357 Thornton Avenue,4357 Thornton Ave.,Fremont,CA,94536-4897
William Hopkins Junior High,600 Driscoll Road,600 Driscoll Rd.,Fremont,CA,94539-3803
John Gomes Elementary,555 Lemos Lane,555 Lemos Ln.,Fremont,CA,94539-3750
Olivos de Guadalupe,611 Olive Avenue,611 Olive Ave.,Fremont,CA,94538
Glankler (Donald G.) (Oh),39201 Sundale Drive,39201 Sundale Dr.,Fremont,CA,94538
Brookvale Elementary,3400 Nicolet Avenue,3400 Nicolet Ave.,Fremont,CA,94536-3598
Warwick Elementary,3375 Warwick Road,3375 Warwick Rd.,Fremont,CA,94555-2499
Fremont Elementary,40230 Laiolo Road,40230 Laiolo Rd.,Fremont,CA,94538
Joshua Chadbourne Elementary,801 Plymouth Avenue,801 Plymouth Ave.,Fremont,CA,94539-4637
Mission San Jose Elementary,43545 Bryant Street,43545 Bryant St.,Fremont,CA,94539-5885
Oliveira Elementary,4180 Alder Avenue,4180 Alder Ave.,Fremont,CA,94536-4799
Steven Millard Elementary,5200 Valpey Park Drive,5200 Valpey Park Dr.,Fremont,CA,94538-3262
Ardenwood Elementary,33955 Emilia Lane,33955 Emilia Ln.,Fremont,CA,94555-2068
Fred E. Weibel Elementary,45135 South Grimmer Boulevard,45135 South Grimmer Blvd.,Fremont,CA,94539-6631
Forest Park Elementary,34400 Maybird Circle,34400 Maybird Cir.,Fremont,CA,94555-2917
Linda Vista Elementary,2650 Bruce Drive,2650 Bruce Dr.,Fremont,CA,94538
